VZLUSAT-2               
1 51085U 22002DF  25051.53189478  .00045068  00000+0  94663-3 0  9996
2 51085  97.3497 122.1963 0006702 236.7954 123.2652 15.45193932172378
L-SAR 01A               
1 51284U 22007A   25051.56762793  .00002096  00000+0  23197-3 0  9990
2 51284  97.8125  60.8796 0001636  92.9845 267.1559 14.88407282166836
INSPIRESAT-1            
1 51657U 22013B   25051.61830938  .00023245  00000+0  61240-3 0  9994
2 51657  97.5086  78.1429 0006971  21.7442 338.4098 15.38504963167592
L-SAR 01B               
1 51822U 22018A   25051.60117407  .00001535  00000+0  17144-3 0  9993
2 51822  97.8121  60.8863 0001485  93.0434 267.0952 14.88411499162076
2022-019D               
1 51827U 22019D   25051.57020474  .00023993  00000+0  72809-3 0  9993
2 51827  97.4053 128.2544 0010964  82.7252 277.5236 15.34040270165162
JILIN-1 GAOFEN 03D14    
1 51831U 22019H   25051.86404264  .00027754  00000+0  83981-3 0  9995
2 51831  97.4070 130.7668 0011338  72.1617 288.0861 15.34097045165359
2022-019J               
1 51832U 22019J   25051.86944353  .00004851  00000+0  24641-3 0  9995
2 51832  97.4027 121.2419 0010688 109.7063 250.5324 15.17300720164737
JILIN-1 GAOFEN 03D16    
1 51834U 22019L   25051.92105740  .00028720  00000+0  84584-3 0  9996
2 51834  97.4043 131.1135 0008158  76.8114 283.4038 15.34976322165387
JILIN-1 GAOFEN 03D11    
1 51835U 22019M   25051.86760888  .00028042  00000+0  84858-3 0  9991
2 51835  97.4079 130.9840 0007387  76.3885 283.8180 15.34130392165369
JILIN-1 GAOFEN 03D17    
1 51838U 22019Q   25051.57668566  .00066964  00000+0  11608-2 0  9999
2 51838  97.4062 134.7267 0006381  71.0227 289.1716 15.50643422165594
JILIN-1 GAOFEN 03D15    
1 51839U 22019R   25051.90590913  .00026540  00000+0  82853-3 0  9994
2 51839  97.4052 130.6382 0005799  95.5184 264.6719 15.33160554165369
JILIN-1 GAOFEN 03D10    
1 51840U 22019S   25051.88085338  .00028277  00000+0  86543-3 0  9992
2 51840  97.4056 131.1273 0001702  22.1294 338.0022 15.33793386165377
JILIN-1 GAOFEN 03D12    
1 51841U 22019T   25051.85951013  .00025918  00000+0  81695-3 0  9994
2 51841  97.4040 130.5425 0005696  62.6689 297.5132 15.32858437165353
JILIN-1 GAOFEN 03D18    
1 51844U 22019W   25051.89004775  .00028518  00000+0  86789-3 0  9993
2 51844  97.4034 130.4076 0011434  74.0456 286.2045 15.33908695165256
2022-023F               
1 51951U 22023F   25051.91655588  .00034352  22976-6  14839-2 0  9996
2 51951  63.5005 108.4791 0088522 342.8497  16.9629 15.18641972157734
CZ-4C R/B               
1 52085U 22027B   25051.27277058 -.00000042  00000+0  57630-4 0  9995
2 52085  63.3944 261.5379 0189784  24.9847 336.0229 13.65433858146232
MERIDIAN 10             
1 52145U 22030A   25050.93299244  .00000231  00000+0  00000+0 0  9992
2 52145  62.6568 191.5416 6759061 273.5793  17.5546  2.00597845 21369
OMNI-L1                 
1 52157U 22033A   25051.18191438  .00005300  00000+0  71023-3 0  9991
2 52157  97.8751 134.6185 0006463  62.4244 297.7623 14.79798202156094
ENMAP                   
1 52159U 22033C   25051.50737628  .00001396  00000+0  21516-3 0  9999
2 52159  97.9792 135.6625 0001519  98.3577 261.7804 14.74958345155650
ARCSAT-1                
1 52161U 22033E   25051.47266726  .00016167  00000+0  40125-3 0  9993
2 52161  97.2998 135.7941 0007321 141.1237 219.0537 15.40402179161236
BRO-7                   
1 52174U 22033T   25051.55131238  .00052642  00000+0  59876-3 0  9996
2 52174  97.3028 145.1300 0006468  91.8579 268.3419 15.62121731161850
GLOBAL-18               
1 52196U 22034B   25051.19139472  .00039909  00000+0  10333-2 0  9994
2 52196  52.9876  19.0471 0004120 358.1119   1.9867 15.38684000162688
GLOBAL-20               
1 52197U 22034C   25051.21959781  .00229351  00000+0  11817-2 0  9991
2 52197  52.9826 333.7025 0009243 179.8978 180.2045 15.79936037163312
GAOFEN-3 03             
1 52200U 22035A   25051.88505638  .00000218  00000+0  79334-4 0  9997
2 52200  98.4132  62.3225 0001108 115.0194 245.1110 14.42211325151487
DAQI 1                  
1 52257U 22039A   25051.89288699  .00000981  00000+0  22554-3 0  9997
2 52257  98.2356 352.5644 0002427 329.4480  30.6577 14.57563361151826
JILIN-1 GAOFEN 4A       
1 52388U 22046A   25051.58105938  .00041639  00000+0  11023-2 0  9993
2 52388  97.4875 146.2301 0009323 299.4307  60.6007 15.38214020155697
JILIN-1 GAOFEN 3D05     
1 52390U 22046C   25051.60278654  .00034611  00000+0  10799-2 0  9996
2 52390  97.4844 146.9510 0000743  60.8854 299.2462 15.33138560155783
JILIN-1 GAOFEN 3D07     
1 52392U 22046E   25051.57217155  .00040629  00000+0  11166-2 0  9998
2 52392  97.4925 148.9440 0001620 101.6741 258.4685 15.37100299155857
BRO-6                   
1 52422U 22047AE  25051.88193867  .00012908  00000+0  41667-3 0  9999
2 52422  97.3719 135.3787 0005720  16.7536 343.3894 15.32245027157074
JILIN-1 GAOFEN 3D27     
1 52444U 22048B   25051.57425110  .00027834  00000+0  96965-3 0  9994
2 52444  97.5763 139.0024 0009415 343.4935  16.5996 15.29588661155049
JILIN-1 GAOFEN 3D28     
1 52445U 22048C   25051.60240714  .00028095  00000+0  96851-3 0  9998
2 52445  97.5728 138.7613 0008190   3.3320 356.7973 15.29939477155050
CONNECTA T1.1           
1 52739U 22057H   25051.91870135  .00038216  00000+0  87853-3 0  9992
2 52739  97.5965 185.9690 0005687   0.8316 359.2939 15.42556182152312
VIGORIDE-3              
1 52760U 22057AE  25051.88913767  .00006072  00000+0  27298-3 0  9993
2 52760  97.5961 178.3863 0010157  13.7765 346.3746 15.21466344151846
ION SCV-006             
1 52761U 22057AF  25051.60155956  .00015182  00000+0  48973-3 0  9997
2 52761  97.5474 179.0450 0024165  41.7089 318.5988 15.31962335152066
SHERPA-AC1              
1 52763U 22057AH  25051.87995037  .00009748  00000+0  36990-3 0  9997
2 52763  97.6015 181.4983 0009337   2.2143 357.9135 15.27025190152026
PLATFORM-1              
1 52770U 22057AQ  25051.91727558  .00052056  00000+0  11502-2 0  9992
2 52770  97.5947 189.4750 0007180 326.6257  33.4537 15.43657976152584
OMNI-L2                 
1 52771U 22057AR  25051.18472203  .00004395  00000+0  58897-3 0  9998
2 52771  97.5156 140.1248 0008369 102.8303 257.3846 14.79844522149083
STEP CUBE LAB-II        
1 52897U 22065D   25051.54615599  .00002407  00000+0  49023-3 0  9996
2 52897  98.1506 194.3588 0009800  94.4775 265.7546 14.61897736141095
RANDEV                  
1 52898U 22065E   25051.52315967  .00002646  00000+0  53455-3 0  9990
2 52898  98.1497 194.4981 0009049  95.8049 264.4184 14.62183647140821
SNUGLITE-II             
1 52899U 22065F   25051.33334354  .00003306  00000+0  65883-3 0  9993
2 52899  98.1486 194.5194 0008576  96.5080 263.7099 14.62653432140511
MIMAN                   
1 52900U 22065G   25051.85554373  .00001631  00000+0  34318-3 0  9996
2 52900  98.1531 194.0824 0008767  91.6662 268.5543 14.60830282140137
STARLINK-4362           
1 53043U 22077A   25051.45811343  .00001302  00000+0  10593-3 0  9991
2 53043  97.6563 234.7519 0000969  96.9811 263.1523 15.01263219143574
LARES-2                 
1 53105U 22080A   25051.40785730  .00000000  00000+0  00000+0 0  9991
2 53105  70.1358 110.5662 0004864  80.9564 279.1778  6.38965232 60882
GREENCUBE               
1 53106U 22080B   25051.21822557 -.00000003  00000+0  00000+0 0  9994
2 53106  70.1434 106.3440 0008542  48.0089 312.1297  6.42557744 61200
ROBUSTA-1F (MTCUBE 2)   
1 53109U 22080E   25051.17858774 -.00000003  00000+0  00000+0 0  9992
2 53109  70.1218 105.8865 0008356  32.6197 327.4978  6.42584229 61090
STARLINK-4410           
1 53204U 22084R   25051.44480565 -.00000130  00000+0 -55357-5 0  9994
2 53204  97.6533 114.7356 0003464  69.4381 290.7214 15.01239453142627
COSMOS 2558             
1 53323U 22089A   25051.73059139  .00029102  00000+0  88852-3 0  9994
2 53323  97.2341 150.5064 0005664 188.9371 171.1772 15.33848795143347
TECMS                   
1 53346U 22090A   25051.57270253  .00008775  00000+0  39427-3 0  9992
2 53346  97.3687 126.6997 0006478   1.2441 358.8809 15.21360195141594
DONGPO 04               
1 53451U 22098H   25051.84305455  .00033701  00000+0  10271-2 0  9992
2 53451  97.5342 160.4624 0003789 318.9483  41.1473 15.33886466140427
DONGPO 02               
1 53452U 22098J   25051.89424871  .00026441  00000+0  89427-3 0  9995
2 53452  97.5210 158.3010 0004472 284.0729  76.0014 15.30593582140376
DONGPO 01               
1 53453U 22098K   25051.86575025  .00024311  00000+0  83328-3 0  9999
2 53453  97.5278 158.8466 0000431 342.2976  17.8249 15.30185620140365
STARLINK-4400           
1 53468U 22099D   25051.87279716  .00002324  00000+0  18546-3 0  9995
2 53468  97.6542 175.1611 0002965  86.8453 273.3110 15.01263644138932
STARLINK-4621           
1 53676U 22105AE  25051.61581384  .00006507  00000+0  51081-3 0  9991
2 53676  97.6561 294.9058 0003335  70.9419 289.2166 15.01251315135911
SHERPA-LTC2             
1 53754U 22107BG  25051.46176689  .00012543  00000+0  66611-3 0  9993
2 53754  53.2369  89.6916 0421871 325.5406  31.8858 14.62448036131861
CENTISPACE-1 S3         
1 53757U 22108A   25051.53582342  .00001512  00000+0  34913-3 0  9996
2 53757  53.5312 245.6089 0010890 135.9774 224.2070 14.60301986131130
CENTISPACE-1 S4         
1 53758U 22108B   25051.57648982  .00001118  00000+0  26569-3 0  9994
2 53758  53.5286 244.9387 0010706 123.7240 236.4757 14.60766734131147
BLUEWALKER-3            
1 53807U 22111AL  25051.34956814  .00004139  00000+0  14262-3 0  9997
2 53807  53.2320 124.5974 0008396 123.6516 236.5289 15.32261988136204
YUNHAI-1 03             
1 53877U 22115A   25051.61024380  .00000685  00000+0  26493-3 0  9993
2 53877  98.5357  51.3833 0002445  73.8174 286.3280 14.33236687126558
CENTISPACE-1 S5         
1 54020U 22126A   25051.86393141  .00002779  00000+0  59385-3 0  9999
2 54020  55.0002 336.9567 0015486  70.9187 289.3482 14.61437262126629
